NORAD_CAT_ID,OBJECT_NAME,OBJECT_TYPE,EPOCH,MEAN_MOTION,ECCENTRICITY,INCLINATION,RA_OF_ASC_NODE,ARG_OF_PERICENTER,MEAN_ANOMALY,BSTAR,MEAN_MOTION_DOT,MEAN_MOTION_DDOT,TLE_LINE0,TLE_LINE1,TLE_LINE2,SEMIMAJOR_AXIS,PERIOD,APOGEE,PERIGEE,DECAYED
53969.0,STARLINK-4468,PAYLOAD,2024-02-14 05:24:06,15.08857403,0.0001567,53.2191,11.0365,90.156,269.9612,0.00013987,1.94e-05,0.0,0 STARLINK-4468,1 53969U 22125F   24045.22507967  .00001940  00000-0  13987-3 0  9992,2 53969  53.2191  11.0365 0001567  90.1560 269.9612 15.08857403 75492,6917.827,95.436,540.776,538.608,0.0
53969.0,STARLINK-4468,PAYLOAD,2024-02-14 14:56:26,15.08850237,0.0001538,53.2179,9.2558,94.9537,265.1631,1.1525e-05,-1.05e-06,0.0,0 STARLINK-4468,1 53969U 22125F   24045.62252537 -.00000105  00000-0  11525-4 0  9996,2 53969  53.2179   9.2558 0001538  94.9537 265.1631 15.08850237 75559,6917.849,95.437,540.778,538.65,0.0
53969.0,STARLINK-4468,PAYLOAD,2024-02-14 21:17:59,15.08834914,0.0001533,53.2177,8.0679,92.045,268.0718,0.00012456,1.695e-05,0.0,0 STARLINK-4468,1 53969U 22125F   24045.88749517  .00001695  00000-0  12456-3 0  9990,2 53969  53.2177   8.0679 0001533  92.0450 268.0718 15.08834914 75525,6917.896,95.438,540.821,538.7,0.0
53969.0,STARLINK-4468,PAYLOAD,2024-02-15 03:39:31,15.08842478,0.0001499,53.2186,6.8778,98.7539,261.3623,4.485e-05,4.26e-06,0.0,0 STARLINK-4468,1 53969U 22125F   24046.15245338  .00000426  00000-0  44850-4 0  9998,2 53969  53.2186   6.8778 0001499  98.7539 261.3623 15.08842478 75630,6917.873,95.437,540.775,538.701,0.0
53969.0,STARLINK-4468,PAYLOAD,2024-02-15 06:50:17,15.08847299,0.0001743,53.2197,6.2805,105.772,254.3464,0.00011067,1.474e-05,0.0,0 STARLINK-4468,1 53969U 22125F   24046.28492796  .00001474  00000-0  11067-3 0  9991,2 53969  53.2197   6.2805 0001743 105.7720 254.3464 15.08847299 75653,6917.858,95.437,540.929,538.517,0.0
53969.0,STARLINK-4468,PAYLOAD,2024-02-15 14:47:14,15.08836619,0.0001639,53.2187,4.7949,89.8586,270.2594,-1.8286e-05,-5.79e-06,0.0,0 STARLINK-4468,1 53969U 22125F   24046.61613899 -.00000579  00000-0 -18286-4 0  9995,2 53969  53.2187   4.7949 0001639  89.8586 270.2594 15.08836619 75701,6917.891,95.438,540.89,538.622,0.0
53969.0,STARLINK-4468,PAYLOAD,2024-02-15 21:08:47,15.08832109,0.0001242,53.2181,3.6067,82.4681,277.6452,5.7383e-05,6.25e-06,0.0,0 STARLINK-4468,1 53969U 22125F   24046.88110027  .00000625  00000-0  57383-4 0  9990,2 53969  53.2181   3.6067 0001242  82.4681 277.6452 15.08832109 75679,6917.905,95.438,540.629,538.91,0.0
53969.0,STARLINK-4468,PAYLOAD,2024-02-16 06:41:04,15.08850983,0.0001493,53.2186,1.8195,97.9548,262.1614,2.5061e-05,1.11e-06,0.0,0 STARLINK-4468,1 53969U 22125F   24047.27852990  .00000111  00000-0  25061-4 0  9994,2 53969  53.2186   1.8195 0001493  97.9548 262.1614 15.08850983 75801,6917.847,95.437,540.745,538.679,0.0
53969.0,STARLINK-4468,PAYLOAD,2024-02-16 20:59:34,15.0883305,0.0001519,53.2177,359.142,105.2745,254.8415,0.00011039,1.469e-05,0.0,0 STARLINK-4468,1 53969U 22125F   24047.87470026  .00001469  00000-0  11039-3 0  9992,2 53969  53.2177 359.1420 0001519 105.2745 254.8415 15.08833050 75827,6917.902,95.438,540.817,538.716,0.0
53969.0,STARLINK-4468,PAYLOAD,2024-02-17 03:21:06,15.08846593,0.000156,53.2192,357.9541,100.5605,259.5562,6.0931e-05,6.82e-06,0.0,0 STARLINK-4468,1 53969U 22125F   24048.13965292  .00000682  00000-0  60931-4 0  9998,2 53969  53.2192 357.9541 0001560 100.5605 259.5562 15.08846593 75936,6917.86,95.437,540.804,538.646,0.0
53969.0,STARLINK-4468,PAYLOAD,2024-02-17 20:50:21,15.0883388,0.0001492,53.2191,354.6876,92.6685,267.4478,0.00017124,2.438e-05,0.0,0 STARLINK-4468,1 53969U 22125F   24048.86830024  .00002438  00000-0  17124-3 0  9998,2 53969  53.2191 354.6876 0001492  92.6685 267.4478 15.08833880 75976,6917.899,95.438,540.796,538.732,0.0
53969.0,STARLINK-4468,PAYLOAD,2024-02-18 12:44:11,15.08850344,0.000149,53.2173,351.7123,97.6545,262.4617,9.4453e-05,1.216e-05,0.0,0 STARLINK-4468,1 53969U 22125F   24049.53069035  .00001216  00000-0  94453-4 0  9993,2 53969  53.2173 351.7123 0001490  97.6545 262.4617 15.08850344 76073,6917.849,95.437,540.745,538.683,0.0
53969.0,STARLINK-4468,PAYLOAD,2024-02-18 20:41:07,15.08844489,0.000189,53.2198,350.2292,96.0002,264.1205,7.8682e-05,9.64e-06,0.0,0 STARLINK-4468,1 53969U 22125F   24049.86189551  .00000964  00000-0  78682-4 0  9990,2 53969  53.2198 350.2292 0001890  96.0002 264.1205 15.08844489 76194,6917.867,95.437,541.039,538.424,0.0
53969.0,STARLINK-4468,PAYLOAD,2024-02-19 12:34:59,15.08842752,0.0001595,53.2196,347.2558,91.0843,269.0332,-1.2374e-05,-4.85e-06,0.0,0 STARLINK-4468,1 53969U 22125F   24050.52429808 -.00000485  00000-0 -12374-4 0  9993,2 53969  53.2196 347.2558 0001595  91.0843 269.0332 15.08842752 76223,6917.872,95.437,540.84,538.634,0.0
53969.0,STARLINK-4468,PAYLOAD,2024-02-19 20:31:56,15.08826502,0.0001523,53.2183,345.7662,91.2221,268.8946,-9.3826e-05,-1.78e-05,0.0,0 STARLINK-4468,1 53969U 22125F   24050.85551355 -.00001780  00000-0 -93826-4 0  9992,2 53969  53.2183 345.7662 0001523  91.2221 268.8946 15.08826502 76347,6917.922,95.438,540.84,538.733,0.0
53969.0,STARLINK-4468,PAYLOAD,2024-02-20 02:53:28,15.08832734,0.0001574,53.22,344.5761,96.3925,263.7246,-6.6152e-05,-1.34e-05,0.0,0 STARLINK-4468,1 53969U 22125F   24051.12046998 -.00001340  00000-0 -66152-4 0  9999,2 53969  53.2200 344.5761 0001574  96.3925 263.7246 15.08832734 76382,6917.903,95.438,540.856,538.679,0.0
53969.0,STARLINK-4468,PAYLOAD,2024-02-20 12:25:47,15.08839453,0.0001779,53.2199,342.7925,83.4209,276.6985,3.0443e-05,1.96e-06,0.0,0 STARLINK-4468,1 53969U 22125F   24051.51790610  .00000196  00000-0  30443-4 0  9999,2 53969  53.2199 342.7925 0001779  83.4209 276.6985 15.08839453 76377,6917.882,95.438,540.978,538.516,0.0
53969.0,STARLINK-4468,PAYLOAD,2024-02-21 02:44:14,15.08855106,0.0001498,53.2185,340.1169,88.8097,271.3067,0.00033862,5.107e-05,0.0,0 STARLINK-4468,1 53969U 22125F   24052.11405534  .00005107  00000-0  33862-3 0  9998,2 53969  53.2185 340.1169 0001498  88.8097 271.3067 15.08855106 76530,6917.834,95.437,540.736,538.663,0.0
53969.0,STARLINK-4468,PAYLOAD,2024-02-21 12:16:33,15.08843081,0.0001771,53.2173,338.3319,70.9223,289.1961,0.00025261,3.735e-05,0.0,0 STARLINK-4468,1 53969U 22125F   24052.51150274  .00003735  00000-0  25261-3 0  9999,2 53969  53.2173 338.3319 0001771  70.9223 289.1961 15.08843081 76595,6917.871,95.437,540.961,538.511,0.0
53969.0,STARLINK-4468,PAYLOAD,2024-02-22 04:10:25,15.08836231,0.0001974,53.2182,335.3552,76.9399,283.1814,7.4787e-05,9.02e-06,0.0,0 STARLINK-4468,1 53969U 22125F   24053.17390828  .00000902  00000-0  74787-4 0  9994,2 53969  53.2182 335.3552 0001974  76.9399 283.1814 15.08836231 76697,6917.892,95.438,541.123,538.391,0.0
53969.0,STARLINK-4468,PAYLOAD,2024-02-22 12:07:21,15.0884303,0.0001786,53.2174,333.8702,75.3601,284.759,0.00016581,2.352e-05,0.0,0 STARLINK-4468,1 53969U 22125F   24053.50510523  .00002352  00000-0  16581-3 0  9995,2 53969  53.2174 333.8702 0001786  75.3601 284.7590 15.08843030 76679,6917.871,95.437,540.972,538.501,0.0
53969.0,STARLINK-4468,PAYLOAD,2024-02-23 00:50:25,15.08853581,0.0001744,53.217,331.4908,77.6182,282.5005,0.00027617,4.112e-05,0.0,0 STARLINK-4468,1 53969U 22125F   24054.03502027  .00004112  00000-0  27617-3 0  9992,2 53969  53.2170 331.4908 0001744  77.6182 282.5005 15.08853581 76826,6917.839,95.437,540.91,538.497,0.0
53969.0,STARLINK-4468,PAYLOAD,2024-02-23 11:58:07,15.08852987,0.0001842,53.2163,329.4106,74.1131,286.0064,0.00041649,6.349e-05,0.0,0 STARLINK-4468,1 53969U 22125F   24054.49870049  .00006349  00000-0  41649-3 0  9999,2 53969  53.2163 329.4106 0001842  74.1131 286.0064 15.08852987 76823,6917.841,95.437,540.98,538.431,0.0
53969.0,STARLINK-4468,PAYLOAD,2024-02-23 18:19:40,15.08849181,0.0002294,53.2193,328.219,92.4706,267.6549,0.00029324,4.383e-05,0.0,0 STARLINK-4468,1 53969U 22125F   24054.76366241  .00004383  00000-0  29324-3 0  9995,2 53969  53.2193 328.2190 0002294  92.4706 267.6549 15.08849181 76936,6917.852,95.437,541.304,538.13,0.0
53969.0,STARLINK-4468,PAYLOAD,2024-02-23 21:30:26,15.08843585,0.0001961,53.2185,327.6244,97.8236,262.2979,0.00014005,1.942e-05,0.0,0 STARLINK-4468,1 53969U 22125F   24054.89614129  .00001942  00000-0  14005-3 0  9998,2 53969  53.2185 327.6244 0001961  97.8236 262.2979 15.08843585 76881,6917.869,95.437,541.091,538.378,0.0
53969.0,STARLINK-4468,PAYLOAD,2024-02-24 03:51:59,15.08844957,0.0001912,53.2195,326.4352,96.8346,263.2864,0.00012768,1.745e-05,0.0,0 STARLINK-4468,1 53969U 22125F   24055.16110184  .00001745  00000-0  12768-3 0  9996,2 53969  53.2195 326.4352 0001912  96.8346 263.2864 15.08844957 76996,6917.865,95.437,541.053,538.408,0.0
53969.0,STARLINK-4468,PAYLOAD,2024-02-25 03:42:46,15.08842369,0.0001993,53.2182,321.9744,114.8529,245.267,1.9848e-05,2.8e-07,0.0,0 STARLINK-4468,1 53969U 22125F   24056.15470208  .00000028  00000-0  19848-4 0  9992,2 53969  53.2182 321.9744 0001993 114.8529 245.2670 15.08842369 77148,6917.873,95.437,541.117,538.359,0.0
53969.0,STARLINK-4468,PAYLOAD,2024-02-25 10:04:18,15.08841737,0.0001828,53.218,320.7853,105.7539,254.3655,-1.4398e-05,-5.17e-06,0.0,0 STARLINK-4468,1 53969U 22125F   24056.41966246 -.00000517  00000-0 -14398-4 0  9993,2 53969  53.2180 320.7853 0001828 105.7539 254.3655 15.08841737 77110,6917.875,95.437,541.005,538.475,0.0
53969.0,STARLINK-4468,PAYLOAD,2024-02-25 22:47:22,15.08873408,0.0001922,53.2175,318.4055,94.19,265.9312,-0.00082254,-0.00013367,0.0,0 STARLINK-4468,1 53969U 22125F   24056.94956166 -.00013367  00000-0 -82254-3 0  9993,2 53969  53.2175 318.4055 0001922  94.1900 265.9312 15.08873408 77196,6917.778,95.435,540.973,538.314,0.0
53969.0,STARLINK-4468,PAYLOAD,2024-02-26 00:22:46,15.08845503,0.0001492,53.2175,318.1108,88.6207,271.4956,0.00020819,3.027e-05,0.0,0 STARLINK-4468,1 53969U 22125F   24057.01582143  .00003027  00000-0  20819-3 0  9991,2 53969  53.2175 318.1108 0001492  88.6207 271.4956 15.08845503 77205,6917.864,95.437,540.761,538.696,0.0
